start=new Date('2023-01-19T00:00:00.000Z').valueOf();
sats=[{"COUNTRY_CODE":"US","REV_AT_EPOCH":"4270","GP_ID":"223423761","RCS_SIZE":"LARGE","CLASSIFICATION_TYPE":"U","MEAN_ELEMENT_THEORY":"SGP4","TLE_LINE2":"2 52358  53.2143 306.0110 0001344  96.3522 263.7623 15.08865660 42700","ECCENTRICITY":"0.00013440","NORAD_CAT_ID":"52358","OBJECT_NAME":"STARLINK-3837","SEMIMAJOR_AXIS":"6917.802","EPOCH":"2023-01-18T04:19:12.942624","LAUNCH_DATE":"2022-04-29","BSTAR":"0.00292130000000","OBJECT_TYPE":"PAYLOAD","CENTER_NAME":"EARTH","PERIAPSIS":"538.737","APOAPSIS":"540.597","ELEMENT_SET_NO":"999","TIME_SYSTEM":"UTC","INCLINATION":"53.2143","SITE":"AFETR","MEAN_ANOMALY":"263.7623","PERIOD":"95.436","OBJECT_ID":"2022-045AD","DECAY_DATE":null,"REF_FRAME":"TEME","MEAN_MOTION":"15.08865660","TLE_LINE1":"1 52358U 22045AD  23018.18001091  .00046545  00000-0  29213-2 0  9993","MEAN_MOTION_DOT":"0.00046545","RA_OF_ASC_NODE":"306.0110","EPHEMERIS_TYPE":"0","FILE":"3753951","ARG_OF_PERICENTER":"96.3522","MEAN_MOTION_DDOT":"0.0000000000000"},{"INCLINATION":"53.2138","ELEMENT_SET_NO":"999","TIME_SYSTEM":"UTC","APOAPSIS":"540.653","BSTAR":"0.00096617000000","CENTER_NAME":"EARTH","OBJECT_TYPE":"PAYLOAD","PERIAPSIS":"538.674","LAUNCH_DATE":"2022-04-29","SEMIMAJOR_AXIS":"6917.798","EPOCH":"2023-01-18T22:09:38.833632","NORAD_CAT_ID":"52359","OBJECT_NAME":"STARLINK-3853","TLE_LINE2":"2 52359  53.2138 302.6677 0001430 103.5490 256.5662 15.08866850 42813","MEAN_ELEMENT_THEORY":"SGP4","ECCENTRICITY":"0.00014300","REV_AT_EPOCH":"4281","GP_ID":"223456683","RCS_SIZE":"LARGE","CLASSIFICATION_TYPE":"U","COUNTRY_CODE":"US","MEAN_MOTION_DDOT":"0.0000000000000","FILE":"3754254","ARG_OF_PERICENTER":"103.5490","EPHEMERIS_TYPE":"0","RA_OF_ASC_NODE":"302.6677","MEAN_MOTION_DOT":"0.00015133","TLE_LINE1":"1 52359U 22045AE  23018.92336613  .00015133  00000-0  96617-3 0  9999","REF_FRAME":"TEME","DECAY_DATE":null,"MEAN_MOTION":"15.08866850","OBJECT_ID":"2022-045AE","PERIOD":"95.436","MEAN_ANOMALY":"256.5662","SITE":"AFETR"},{"COUNTRY_CODE":"US","REV_AT_EPOCH":"4293","RCS_SIZE":"LARGE","GP_ID":"223456434","CLASSIFICATION_TYPE":"U","MEAN_ELEMENT_THEORY":"SGP4","TLE_LINE2":"2 52360  53.2139 292.7723 0001470 117.0320 243.0822 15.08864868 42932","ECCENTRICITY":"0.00014700","OBJECT_NAME":"STARLINK-3824","NORAD_CAT_ID":"52360","EPOCH":"2023-01-18T21:39:11.140128","SEMIMAJOR_AXIS":"6917.804","LAUNCH_DATE":"2022-04-29","BSTAR":"0.00157570000000","OBJECT_TYPE":"PAYLOAD","PERIAPSIS":"538.652","CENTER_NAME":"EARTH","APOAPSIS":"540.686","ELEMENT_SET_NO":"999","TIME_SYSTEM":"UTC","INCLINATION":"53.2139","SITE":"AFETR","MEAN_ANOMALY":"243.0822","PERIOD":"95.436","OBJECT_ID":"2022-045AF","DECAY_DATE":null,"REF_FRAME":"TEME","MEAN_MOTION":"15.08864868","TLE_LINE1":"1 52360U 22045AF  23018.90221227  .00024895  00000-0  15757-2 0  9993","MEAN_MOTION_DOT":"0.00024895","RA_OF_ASC_NODE":"292.7723","EPHEMERIS_TYPE":"0","FILE":"3754254","ARG_OF_PERICENTER":"117.0320","MEAN_MOTION_DDOT":"0.0000000000000"},{"OBJECT_ID":"2022-045AG","MEAN_MOTION":"15.08850857","DECAY_DATE":null,"REF_FRAME":"TEME","TLE_LINE1":"1 52361U 22045AG  23018.51856073 -.00001073  00000-0 -49305-4 0  9997","SITE":"AFETR","MEAN_ANOMALY":"276.6842","PERIOD":"95.437","ARG_OF_PERICENTER":"83.4292","FILE":"3753970","MEAN_MOTION_DDOT":"0.0000000000000","MEAN_MOTION_DOT":"-0.00001073","RA_OF_ASC_NODE":"304.4867","EPHEMERIS_TYPE":"0","SEMIMAJOR_AXIS":"6917.847","EPOCH":"2023-01-18T12:26:43.647072","LAUNCH_DATE":"2022-04-29","COUNTRY_CODE":"US","GP_ID":"223426491","RCS_SIZE":"LARGE","CLASSIFICATION_TYPE":"U","REV_AT_EPOCH":"4275","ECCENTRICITY":"0.00012490","TLE_LINE2":"2 52361  53.2174 304.4867 0001249  83.4292 276.6842 15.08850857 42757","MEAN_ELEMENT_THEORY":"SGP4","OBJECT_NAME":"STARLINK-3728","NORAD_CAT_ID":"52361","TIME_SYSTEM":"UTC","ELEMENT_SET_NO":"999","INCLINATION":"53.2174","OBJECT_TYPE":"PAYLOAD","PERIAPSIS":"538.848","CENTER_NAME":"EARTH","BSTAR":"-0.00004930500000","APOAPSIS":"540.576"},{"MEAN_MOTION_DOT":"0.00013783","RA_OF_ASC_NODE":"292.7825","EPHEMERIS_TYPE":"0","ARG_OF_PERICENTER":"85.5676","FILE":"3754254","MEAN_MOTION_DDOT":"0.0000000000000","SITE":"AFETR","MEAN_ANOMALY":"274.5488","PERIOD":"95.436","OBJECT_ID":"2022-045AH","MEAN_MOTION":"15.08857302","REF_FRAME":"TEME","DECAY_DATE":null,"TLE_LINE1":"1 52362U 22045AH  23018.89852588  .00013783  00000-0  88198-3 0  9997","PERIAPSIS":"538.651","OBJECT_TYPE":"PAYLOAD","CENTER_NAME":"EARTH","BSTAR":"0.00088198000000","APOAPSIS":"540.734","TIME_SYSTEM":"UTC","ELEMENT_SET_NO":"999","INCLINATION":"53.2138","COUNTRY_CODE":"US","GP_ID":"223455933","CLASSIFICATION_TYPE":"U","RCS_SIZE":"LARGE","REV_AT_EPOCH":"4294","ECCENTRICITY":"0.00015050","TLE_LINE2":"2 52362  53.2138 292.7825 0001505  85.5676 274.5488 15.08857302 42941","MEAN_ELEMENT_THEORY":"SGP4","OBJECT_NAME":"STARLINK-3848","NORAD_CAT_ID":"52362","SEMIMAJOR_AXIS":"6917.828","EPOCH":"2023-01-18T21:33:52.636032","LAUNCH_DATE":"2022-04-29"},{"OBJECT_TYPE":"PAYLOAD","CENTER_NAME":"EARTH","PERIAPSIS":"538.512","BSTAR":"0.00111170000000","APOAPSIS":"540.939","TIME_SYSTEM":"UTC","ELEMENT_SET_NO":"999","INCLINATION":"53.2141","COUNTRY_CODE":"US","GP_ID":"223423513","CLASSIFICATION_TYPE":"U","RCS_SIZE":"LARGE","REV_AT_EPOCH":"4275","ECCENTRICITY":"0.00017540","MEAN_ELEMENT_THEORY":"SGP4","TLE_LINE2":"2 52363  53.2141 304.5116 0001754  87.1577 272.9616 15.08846610 42759","NORAD_CAT_ID":"52363","OBJECT_NAME":"STARLINK-3830","EPOCH":"2023-01-18T12:21:26.572896","SEMIMAJOR_AXIS":"6917.860","LAUNCH_DATE":"2022-04-29","MEAN_MOTION_DOT":"0.00017452","EPHEMERIS_TYPE":"0","RA_OF_ASC_NODE":"304.5116","ARG_OF_PERICENTER":"87.1577","FILE":"3753951","MEAN_MOTION_DDOT":"0.0000000000000","SITE":"AFETR","MEAN_ANOMALY":"272.9616","PERIOD":"95.437","OBJECT_ID":"2022-045AJ","MEAN_MOTION":"15.08846610","DECAY_DATE":null,"REF_FRAME":"TEME","TLE_LINE1":"1 52363U 22045AJ  23018.51489089  .00017452  00000-0  11117-2 0  9992"},{"COUNTRY_CODE":"US","REV_AT_EPOCH":"4293","CLASSIFICATION_TYPE":"U","GP_ID":"223456934","RCS_SIZE":"LARGE","TLE_LINE2":"2 52364  53.2172 293.0999 0001237  66.5057 293.6065 15.08865372 42939","MEAN_ELEMENT_THEORY":"SGP4","ECCENTRICITY":"0.00012370","OBJECT_NAME":"STARLINK-3820","NORAD_CAT_ID":"52364","SEMIMAJOR_AXIS":"6917.803","EPOCH":"2023-01-18T19:49:16.392288","LAUNCH_DATE":"2022-04-29","BSTAR":"0.00179510000000","PERIAPSIS":"538.812","OBJECT_TYPE":"PAYLOAD","CENTER_NAME":"EARTH","APOAPSIS":"540.524","ELEMENT_SET_NO":"999","TIME_SYSTEM":"UTC","INCLINATION":"53.2172","SITE":"AFETR","MEAN_ANOMALY":"293.6065","PERIOD":"95.436","OBJECT_ID":"2022-045AK","DECAY_DATE":null,"REF_FRAME":"TEME","MEAN_MOTION":"15.08865372","TLE_LINE1":"1 52364U 22045AK  23018.82588417  .00028416  00000-0  17951-2 0  9996","MEAN_MOTION_DOT":"0.00028416","RA_OF_ASC_NODE":"293.0999","EPHEMERIS_TYPE":"0","FILE":"3754254","ARG_OF_PERICENTER":"66.5057","MEAN_MOTION_DDOT":"0.0000000000000"},{"APOAPSIS":"540.554","PERIAPSIS":"538.797","OBJECT_TYPE":"PAYLOAD","CENTER_NAME":"EARTH","BSTAR":"0.00115680000000","TIME_SYSTEM":"UTC","ELEMENT_SET_NO":"999","INCLINATION":"53.2167","ECCENTRICITY":"0.00012700","MEAN_ELEMENT_THEORY":"SGP4","TLE_LINE2":"2 52365  53.2167 292.7385 0001270 113.7785 246.3341 15.08862735 42942","NORAD_CAT_ID":"52365","OBJECT_NAME":"STARLINK-3874","COUNTRY_CODE":"US","RCS_SIZE":"LARGE","GP_ID":"223455183","CLASSIFICATION_TYPE":"U","REV_AT_EPOCH":"4294","LAUNCH_DATE":"2022-04-29","SEMIMAJOR_AXIS":"6917.811","EPOCH":"2023-01-18T21:44:28.615200","RA_OF_ASC_NODE":"292.7385","EPHEMERIS_TYPE":"0","MEAN_MOTION_DOT":"0.00018182","MEAN_MOTION_DDOT":"0.0000000000000","ARG_OF_PERICENTER":"113.7785","FILE":"3754254","PERIOD":"95.436","SITE":"AFETR","MEAN_ANOMALY":"246.3341","MEAN_MOTION":"15.08862735","DECAY_DATE":null,"REF_FRAME":"TEME","TLE_LINE1":"1 52365U 22045AL  23018.90588675  .00018182  00000-0  11568-2 0  9999","OBJECT_ID":"2022-045AL"},{"PERIOD":"95.438","MEAN_ANOMALY":"281.3687","SITE":"AFETR","TLE_LINE1":"1 52366U 22045AM  23018.82124468  .00003373  00000-0  22993-3 0  9998","REF_FRAME":"TEME","DECAY_DATE":null,"MEAN_MOTION":"15.08834832","OBJECT_ID":"2022-045AM","RA_OF_ASC_NODE":"293.1232","EPHEMERIS_TYPE":"0","MEAN_MOTION_DOT":"0.00003373","MEAN_MOTION_DDOT":"0.0000000000000","FILE":"3754254","ARG_OF_PERICENTER":"78.7475","NORAD_CAT_ID":"52366","OBJECT_NAME":"STARLINK-3808","MEAN_ELEMENT_THEORY":"SGP4","TLE_LINE2":"2 52366  53.2171 293.1232 0001507  78.7475 281.3687 15.08834832 42931","ECCENTRICITY":"0.00015070","REV_AT_EPOCH":"4293","GP_ID":"223455433","RCS_SIZE":"LARGE","CLASSIFICATION_TYPE":"U","COUNTRY_CODE":"US","LAUNCH_DATE":"2022-04-29","SEMIMAJOR_AXIS":"6917.896","EPOCH":"2023-01-18T19:42:35.540352","APOAPSIS":"540.804","BSTAR":"0.00022993000000","OBJECT_TYPE":"PAYLOAD","PERIAPSIS":"538.719","CENTER_NAME":"EARTH","INCLINATION":"53.2171","ELEMENT_SET_NO":"999","TIME_SYSTEM":"UTC"},{"OBJECT_ID":"2022-045AN","TLE_LINE1":"1 52367U 22045AN  23018.89484492  .00014458  00000-0  92403-3 0  9991","DECAY_DATE":null,"REF_FRAME":"TEME","MEAN_MOTION":"15.08864591","MEAN_ANOMALY":"245.8109","SITE":"AFETR","PERIOD":"95.436","FILE":"3754254","ARG_OF_PERICENTER":"114.3082","MEAN_MOTION_DDOT":"0.0000000000000","MEAN_MOTION_DOT":"0.00014458","RA_OF_ASC_NODE":"292.7896","EPHEMERIS_TYPE":"0","SEMIMAJOR_AXIS":"6917.805","EPOCH":"2023-01-18T21:28:34.601088","LAUNCH_DATE":"2022-04-29","REV_AT_EPOCH":"4294","RCS_SIZE":"LARGE","GP_ID":"223456684","CLASSIFICATION_TYPE":"U","COUNTRY_CODE":"US","OBJECT_NAME":"STARLINK-3817","NORAD_CAT_ID":"52367","MEAN_ELEMENT_THEORY":"SGP4","TLE_LINE2":"2 52367  53.2184 292.7896 0001898 114.3082 245.8109 15.08864591 42941","ECCENTRICITY":"0.00018980","INCLINATION":"53.2184","ELEMENT_SET_NO":"999","TIME_SYSTEM":"UTC","BSTAR":"0.00092403000000","OBJECT_TYPE":"PAYLOAD","CENTER_NAME":"EARTH","PERIAPSIS":"538.357","APOAPSIS":"540.983"}];
